[{"OBJECT_NAME":"STARLINK-32618","OBJECT_ID":"2024-216P","EPOCH":"2026-03-03T00:30:25.979328","MEAN_MOTION":15.27579954,"ECCENTRICITY":0.0001212,"INCLINATION":42.993,"RA_OF_ASC_NODE":294.1673,"ARG_OF_PERICENTER":74.3274,"MEAN_ANOMALY":285.7711,"EPHEMERIS_TYPE":0,"CLASSIFICATION_TYPE":"U","NORAD_CAT_ID":62045,"ELEMENT_SET_NO":999,"REV_AT_EPOCH":7285,"BSTAR":0.0009407,"MEAN_MOTION_DOT":0.00025714,"MEAN_MOTION_DDOT":0},{"OBJECT_NAME":"STARLINK-32598","OBJECT_ID":"2024-216Q","EPOCH":"2026-03-03T00:52:25.133664","MEAN_MOTION":15.27603636,"ECCENTRICITY":7.24e-5,"INCLINATION":42.9987,"RA_OF_ASC_NODE":293.423,"ARG_OF_PERICENTER":238.3919,"MEAN_ANOMALY":121.6862,"EPHEMERIS_TYPE":0,"CLASSIFICATION_TYPE":"U","NORAD_CAT_ID":62046,"ELEMENT_SET_NO":999,"REV_AT_EPOCH":7286,"BSTAR":0.0012583,"MEAN_MOTION_DOT":0.00034552,"MEAN_MOTION_DDOT":0},{"OBJECT_NAME":"STARLINK-32630","OBJECT_ID":"2024-216R","EPOCH":"2026-03-03T00:45:41.293152","MEAN_MOTION":15.27593863,"ECCENTRICITY":2.95e-5,"INCLINATION":42.9926,"RA_OF_ASC_NODE":301.1698,"ARG_OF_PERICENTER":67.1718,"MEAN_ANOMALY":292.9165,"EPHEMERIS_TYPE":0,"CLASSIFICATION_TYPE":"U","NORAD_CAT_ID":62047,"ELEMENT_SET_NO":999,"REV_AT_EPOCH":7277,"BSTAR":0.0012064,"MEAN_MOTION_DOT":0.00033098,"MEAN_MOTION_DDOT":0},{"OBJECT_NAME":"STARLINK-32599","OBJECT_ID":"2024-216S","EPOCH":"2026-03-03T00:51:13.596192","MEAN_MOTION":15.27583817,"ECCENTRICITY":0.0001992,"INCLINATION":43.0048,"RA_OF_ASC_NODE":301.1931,"ARG_OF_PERICENTER":255.4882,"MEAN_ANOMALY":104.5749,"EPHEMERIS_TYPE":0,"CLASSIFICATION_TYPE":"U","NORAD_CAT_ID":62048,"ELEMENT_SET_NO":999,"REV_AT_EPOCH":7277,"BSTAR":0.001177,"MEAN_MOTION_DOT":0.00032273,"MEAN_MOTION_DDOT":0},{"OBJECT_NAME":"STARLINK-32473","OBJECT_ID":"2024-216T","EPOCH":"2026-03-03T00:17:28.521024","MEAN_MOTION":15.27591865,"ECCENTRICITY":5.87e-5,"INCLINATION":42.9928,"RA_OF_ASC_NODE":294.0986,"ARG_OF_PERICENTER":88.2895,"MEAN_ANOMALY":271.8024,"EPHEMERIS_TYPE":0,"CLASSIFICATION_TYPE":"U","NORAD_CAT_ID":62049,"ELEMENT_SET_NO":999,"REV_AT_EPOCH":7169,"BSTAR":0.0011075,"MEAN_MOTION_DOT":0.00030352,"MEAN_MOTION_DDOT":0},{"OBJECT_NAME":"STARLINK-32492","OBJECT_ID":"2024-216U","EPOCH":"2026-03-03T01:48:22.820832","MEAN_MOTION":15.27586553,"ECCENTRICITY":0.0001127,"INCLINATION":42.9985,"RA_OF_ASC_NODE":300.6323,"ARG_OF_PERICENTER":279.1739,"MEAN_ANOMALY":80.8985,"EPHEMERIS_TYPE":0,"CLASSIFICATION_TYPE":"U","NORAD_CAT_ID":62050,"ELEMENT_SET_NO":999,"REV_AT_EPOCH":7278,"BSTAR":0.00045871,"MEAN_MOTION_DOT":0.00012384,"MEAN_MOTION_DDOT":0},{"OBJECT_NAME":"STARLINK-32496","OBJECT_ID":"2024-216V","EPOCH":"2026-03-03T01:06:01.822752","MEAN_MOTION":15.27594676,"ECCENTRICITY":0.0001386,"INCLINATION":43.0027,"RA_OF_ASC_NODE":301.2732,"ARG_OF_PERICENTER":265.4753,"MEAN_ANOMALY":94.594,"EPHEMERIS_TYPE":0,"CLASSIFICATION_TYPE":"U","NORAD_CAT_ID":62051,"ELEMENT_SET_NO":999,"REV_AT_EPOCH":7277,"BSTAR":0.00079761,"MEAN_MOTION_DOT":0.00021761,"MEAN_MOTION_DDOT":0},{"OBJECT_NAME":"STARLINK-32495","OBJECT_ID":"2024-216W","EPOCH":"2026-03-03T01:22:28.217856","MEAN_MOTION":15.27592036,"ECCENTRICITY":0.0002266,"INCLINATION":43.0026,"RA_OF_ASC_NODE":300.4981,"ARG_OF_PERICENTER":254.2379,"MEAN_ANOMALY":105.8222,"EPHEMERIS_TYPE":0,"CLASSIFICATION_TYPE":"U","NORAD_CAT_ID":62052,"ELEMENT_SET_NO":999,"REV_AT_EPOCH":7278,"BSTAR":0.00079234,"MEAN_MOTION_DOT":0.00021614,"MEAN_MOTION_DDOT":0},{"OBJECT_NAME":"STARLINK-32494","OBJECT_ID":"2024-216X","EPOCH":"2026-03-03T01:59:28.645152","MEAN_MOTION":15.2759087,"ECCENTRICITY":0.0001478,"INCLINATION":43.0001,"RA_OF_ASC_NODE":300.6914,"ARG_OF_PERICENTER":263.9096,"MEAN_ANOMALY":96.1587,"EPHEMERIS_TYPE":0,"CLASSIFICATION_TYPE":"U","NORAD_CAT_ID":62053,"ELEMENT_SET_NO":999,"REV_AT_EPOCH":7278,"BSTAR":0.0011042,"MEAN_MOTION_DOT":0.00030259,"MEAN_MOTION_DDOT":0},{"OBJECT_NAME":"STARLINK-32408","OBJECT_ID":"2024-216Y","EPOCH":"2026-03-03T01:46:04.212768","MEAN_MOTION":15.2759148,"ECCENTRICITY":0.0001526,"INCLINATION":43.0022,"RA_OF_ASC_NODE":293.6992,"ARG_OF_PERICENTER":274.5186,"MEAN_ANOMALY":85.5492,"EPHEMERIS_TYPE":0,"CLASSIFICATION_TYPE":"U","NORAD_CAT_ID":62054,"ELEMENT_SET_NO":999,"REV_AT_EPOCH":7287,"BSTAR":0.0011697,"MEAN_MOTION_DOT":0.00032077,"MEAN_MOTION_DDOT":0},{"OBJECT_NAME":"STARLINK-32571","OBJECT_ID":"2024-216Z","EPOCH":"2026-03-03T00:46:51.340224","MEAN_MOTION":15.27594423,"ECCENTRICITY":0.0002131,"INCLINATION":43.0034,"RA_OF_ASC_NODE":293.3889,"ARG_OF_PERICENTER":259.7996,"MEAN_ANOMALY":100.2616,"EPHEMERIS_TYPE":0,"CLASSIFICATION_TYPE":"U","NORAD_CAT_ID":62055,"ELEMENT_SET_NO":999,"REV_AT_EPOCH":7296,"BSTAR":0.0016082,"MEAN_MOTION_DOT":0.00044278,"MEAN_MOTION_DDOT":0},{"OBJECT_NAME":"STARLINK-11465 [DTC]","OBJECT_ID":"2024-217A","EPOCH":"2026-03-03T02:44:54.546144","MEAN_MOTION":15.69849839,"ECCENTRICITY":0.000159,"INCLINATION":53.1567,"RA_OF_ASC_NODE":103.4652,"ARG_OF_PERICENTER":124.8262,"MEAN_ANOMALY":235.2906,"EPHEMERIS_TYPE":0,"CLASSIFICATION_TYPE":"U","NORAD_CAT_ID":62057,"ELEMENT_SET_NO":999,"REV_AT_EPOCH":7414,"BSTAR":0.0021784,"MEAN_MOTION_DOT":0.00273802,"MEAN_MOTION_DDOT":0},{"OBJECT_NAME":"STARLINK-11426 [DTC]","OBJECT_ID":"2024-217B","EPOCH":"2026-03-03T02:37:50.658240","MEAN_MOTION":15.69840191,"ECCENTRICITY":4.34e-5,"INCLINATION":53.1566,"RA_OF_ASC_NODE":103.4321,"ARG_OF_PERICENTER":140.8835,"MEAN_ANOMALY":219.2214,"EPHEMERIS_TYPE":0,"CLASSIFICATION_TYPE":"U","NORAD_CAT_ID":62058,"ELEMENT_SET_NO":999,"REV_AT_EPOCH":7408,"BSTAR":0.0020346,"MEAN_MOTION_DOT":0.00255007,"MEAN_MOTION_DDOT":0},{"OBJECT_NAME":"STARLINK-11454 [DTC]","OBJECT_ID":"2024-217C","EPOCH":"2026-03-02T12:10:27.295968","MEAN_MOTION":15.69738185,"ECCENTRICITY":0.0001466,"INCLINATION":53.1568,"RA_OF_ASC_NODE":106.7985,"ARG_OF_PERICENTER":57.2632,"MEAN_ANOMALY":302.8527,"EPHEMERIS_TYPE":0,"CLASSIFICATION_TYPE":"U","NORAD_CAT_ID":62059,"ELEMENT_SET_NO":999,"REV_AT_EPOCH":7404,"BSTAR":0.0012417042,"MEAN_MOTION_DOT":0.00152823,"MEAN_MOTION_DDOT":0},{"OBJECT_NAME":"STARLINK-11473 [DTC]","OBJECT_ID":"2024-217D","EPOCH":"2026-03-02T13:56:16.477728","MEAN_MOTION":15.69734848,"ECCENTRICITY":0.0002887,"INCLINATION":53.1569,"RA_OF_ASC_NODE":106.5487,"ARG_OF_PERICENTER":34.4106,"MEAN_ANOMALY":325.7098,"EPHEMERIS_TYPE":0,"CLASSIFICATION_TYPE":"U","NORAD_CAT_ID":62060,"ELEMENT_SET_NO":999,"REV_AT_EPOCH":7405,"BSTAR":0.0012131,"MEAN_MOTION_DOT":0.00149217,"MEAN_MOTION_DDOT":0},{"OBJECT_NAME":"STARLINK-11429 [DTC]","OBJECT_ID":"2024-217E","EPOCH":"2026-03-02T12:03:23.516928","MEAN_MOTION":15.69737885,"ECCENTRICITY":0.00014057,"INCLINATION":53.1563,"RA_OF_ASC_NODE":106.7645,"ARG_OF_PERICENTER":67.9193,"MEAN_ANOMALY":292.1974,"EPHEMERIS_TYPE":0,"CLASSIFICATION_TYPE":"U","NORAD_CAT_ID":62061,"ELEMENT_SET_NO":999,"REV_AT_EPOCH":7404,"BSTAR":0.0013235365,"MEAN_MOTION_DOT":0.00163135,"MEAN_MOTION_DDOT":0}]
